1 58895U 24020V 26161.94577776 -.00001534 00000+0 -37669-4 0 9990 
2 58895 53.1595 248.9261 0001285 71.4576 288.6565 15.31704769132350 
1 58897U 24020X 26161.95045936 .00005733 00000+0 19655-3 0 9998 
2 58897 53.1620 248.9608 0001635 106.7729 253.3452 15.31668909132356 
1 58899U 24022A 26162.10051322 .00015536 00000+0 39308-3 0 9995 
2 58899 97.4121 12.0267 0010106 134.5329 225.6745 15.39802396131336 
1 58900U 24022B 26162.09547220 .00014660 00000+0 37482-3 0 9991 
2 58900 97.4118 12.0157 0010668 130.7678 229.4495 15.39487943131332 
1 58902U 24022D 26162.11443895 .02051285 24124-5 12386-2 0 9999 
2 58902 97.3665 27.0135 0005866 221.6403 138.4440 16.18306341132354 
1 58903U 24022E 26162.11041878 .00016015 00000+0 39247-3 0 9992 
2 58903 97.4102 12.9560 0009231 115.4631 244.7571 15.40777192131401 
1 58905U 24023A 26162.14649044 .00001336 00000+0 18903-3 0 9993 
2 58905 49.9962 22.0699 0005289 8.2099 351.8925 14.83233149128011 
1 58906U 24023B 26162.19858356 .00001285 00000+0 18298-3 0 9997 
2 58906 50.0000 21.9774 0014829 336.7438 23.2828 14.83222530128021 
1 58907U 24023C 26162.23943616 .00001904 00000+0 18521-3 0 9994 
2 58907 50.0020 352.4115 0005989 12.7106 347.3988 14.97061574128431 
1 58908U 24023D 26162.08019002 .00002043 00000+0 19665-3 0 9996 
2 58908 49.9933 352.1749 0006159 15.5295 344.5837 14.97155760128413 
1 58909U 24023E 26162.22878911 .00001348 00000+0 19063-3 0 9994 
2 58909 50.0061 21.9354 0011128 41.2947 318.8831 14.83238606128036 
1 58910U 24023F 26162.26612161 .00005137 00000+0 38509-3 0 9999 
2 58910 49.9888 328.0308 0005611 31.5512 328.5771 15.04130136128755 
1 58911U 24023G 26162.25857648 .00001340 00000+0 18964-3 0 9995 
2 58911 50.0071 22.2000 0010417 37.1160 323.0497 14.83233608128036 
1 58912U 24023H 26162.24348963 .00001521 00000+0 21142-3 0 9993 
2 58912 49.9909 20.7618 0003990 327.3274 32.7417 14.83229861128032 
1 58913U 24023J 26162.22146900 .00001278 00000+0 18199-3 0 9996 
2 58913 50.0049 21.7982 0021913 344.8649 15.1632 14.83212502128039 
1 58914U 24023K 26162.13846059 .00001304 00000+0 18535-3 0 9993 
2 58914 49.9958 22.0021 0009790 335.0055 25.0408 14.83223458128017 
1 58915U 24023L 26162.23598711 .00001666 00000+0 22885-3 0 9998 
2 58915 50.0011 21.5457 0019455 89.9036 270.4132 14.83229678128033 
1 58918U 24024B 26161.70506894 .00002745 00000+0 12797-3 0 9994 
2 58918 97.3071 228.2628 0018165 165.4102 194.7661 15.20560881130363 
1 58919U 24024C 26162.31516253 .00231301 00000+0 10365-2 0 9993 
2 58919 97.3141 251.9365 0006784 245.6128 114.4434 15.83533440131971 
1 58921U 24024E 26162.29987773 .00005989 00000+0 18724-3 0 9991 
2 58921 97.3056 236.4245 0009439 130.9795 229.2266 15.33484234130990 
1 58922U 24024F 26162.28321666 .00007814 00000+0 34408-3 0 9990 
2 58922 97.3037 227.0267 0013571 67.6619 292.6054 15.22020702130367 
1 58925U 24024J 26162.25982663 .00088556 00000+0 58629-3 0 9993 
2 58925 97.3122 253.2581 0003034 142.9777 217.1698 15.75270735168773 
1 58928U 24025A 26162.05101788 .00000348 00000+0 72975-4 0 9990 
2 58928 98.0956 93.4586 0000629 301.6523 58.4619 14.65539125125038 
1 58929U 24026A 26161.71256631 .00008452 00000+0 56773-4 0 9994 
2 58929 96.6192 46.0294 0001925 90.8107 269.3381 15.75424533134611 
1 58931U 24027A 26162.25002315 .00008103 00000+0 25080-3 0 9995 
2 58931 53.1587 234.8328 0001121 72.6922 6.4765 15.34385010 5812 
1 58932U 24027B 26161.94269028 -.00000498 00000+0 -42810-5 0 9990 
2 58932 53.1596 235.9193 0001179 80.3595 279.7539 15.31705792131612 
1 58933U 24027C 26161.91195085 -.00000926 00000+0 -19145-4 0 9999 
2 58933 53.1614 236.4320 0001026 84.2360 275.8757 15.30196053131607 
1 58934U 24027D 26161.90878198 .00005389 00000+0 19386-3 0 9994 
2 58934 53.1586 236.4170 0000840 120.0785 240.0299 15.30215265131604 
1 58935U 24027E 26161.49906129 .00001865 00000+0 75047-4 0 9997 
2 58935 53.1598 238.8343 0001398 71.2046 288.9107 15.30211428131530 
1 58936U 24027F 26161.49801172 .00000479 00000+0 28296-4 0 9994 
2 58936 53.1604 238.8272 0001333 117.2045 242.9092 15.30196745131536 
