OBJECT_NAME,OBJECT_ID,EPOCH,MEAN_MOTION,ECCENTRICITY,INCLINATION,RA_OF_ASC_NODE,ARG_OF_PERICENTER,MEAN_ANOMALY,EPHEMERIS_TYPE,CLASSIFICATION_TYPE,NORAD_CAT_ID,ELEMENT_SET_NO,REV_AT_EPOCH,BSTAR,MEAN_MOTION_DOT,MEAN_MOTION_DDOT
STARLINK-31218,2024-020V,2026-06-10T22:41:55.198464,15.31704769,.00012859,53.1595,248.9261,71.4576,288.6565,0,U,58895,999,13235,-.37668609E-4,-.1534E-4,0
STARLINK-31190,2024-020X,2026-06-10T22:48:39.688704,15.31668909,.00016357,53.1620,248.9608,106.7729,253.3452,0,U,58897,999,13235,.19654912E-3,.5733E-4,0
LEMUR-2-NIMBUS2000,2024-022A,2026-06-11T02:24:44.342208,15.39802396,.00101064,97.4121,12.0267,134.5329,225.6745,0,U,58899,999,13133,.39307867E-3,.15536E-3,0
LEMUR-2-VALHALLA,2024-022B,2026-06-11T02:17:28.798080,15.39487943,.00106683,97.4118,12.0157,130.7678,229.4495,0,U,58900,999,13133,.37482462E-3,.1466E-3,0
LEMUR-2-OBA-NI-JESU,2024-022D,2026-06-11T02:44:47.525280,16.18306341,.00058661,97.3665,27.0135,221.6403,138.4440,0,U,58902,999,13235,.12385863E-2,.2051285E-1,.2412449E-5
LEMUR-2-CAEL,2024-022E,2026-06-11T02:39:00.182592,15.40777192,.00092315,97.4102,12.9560,115.4631,244.7571,0,U,58903,999,13140,.39247376E-3,.16015E-3,0
GEESAT-2 01,2024-023A,2026-06-11T03:30:56.774016,14.83233149,.00052897,49.9962,22.0699,8.2099,351.8925,0,U,58905,999,12801,.18903443E-3,.1336E-4,0
GEESAT-2 02,2024-023B,2026-06-11T04:45:57.619584,14.83222530,.00148294,50.0000,21.9774,336.7438,23.2828,0,U,58906,999,12802,.1829776E-3,.1285E-4,0
GEESAT-2 03,2024-023C,2026-06-11T05:44:47.284224,14.97061574,.00059893,50.0020,352.4115,12.7106,347.3988,0,U,58907,999,12843,.18521118E-3,.1904E-4,0
GEESAT-2 04,2024-023D,2026-06-11T01:55:28.417728,14.97155760,.0006159,49.9933,352.1749,15.5295,344.5837,0,U,58908,999,12841,.1966463E-3,.2043E-4,0
GEESAT-2 05,2024-023E,2026-06-11T05:29:27.379104,14.83238606,.00111285,50.0061,21.9354,41.2947,318.8831,0,U,58909,999,12803,.19063421E-3,.1348E-4,0
GEESAT-2 06,2024-023F,2026-06-11T06:23:12.907104,15.04130136,.00056119,49.9888,328.0308,31.5512,328.5771,0,U,58910,999,12875,.3850857E-3,.5137E-4,0
GEESAT-2 07,2024-023G,2026-06-11T06:12:21.007872,14.83233608,.00104171,50.0071,22.2000,37.1160,323.0497,0,U,58911,999,12803,.18964464E-3,.134E-4,0
GEESAT-2 08,2024-023H,2026-06-11T05:50:37.504032,14.83229861,.00039907,49.9909,20.7618,327.3274,32.7417,0,U,58912,999,12803,.21142212E-3,.1521E-4,0
GEESAT-2 09,2024-023J,2026-06-11T05:18:54.921600,14.83212502,.00219135,50.0049,21.7982,344.8649,15.1632,0,U,58913,999,12803,.18198586E-3,.1278E-4,0
GEESAT-2 10,2024-023K,2026-06-11T03:19:22.994976,14.83223458,.00097906,49.9958,22.0021,335.0055,25.0408,0,U,58914,999,12801,.18535464E-3,.1304E-4,0
GEESAT-2 11,2024-023L,2026-06-11T05:39:49.286304,14.83229678,.00194552,50.0011,21.5457,89.9036,270.4132,0,U,58915,999,12803,.22885125E-3,.1666E-4,0
XINGSHIDAI 20,2024-024B,2026-06-10T16:55:17.956416,15.20560881,.00181658,97.3071,228.2628,165.4102,194.7661,0,U,58918,999,13036,.12797227E-3,.2745E-4,0
2024-024C,2024-024C,2026-06-11T07:33:50.042592,15.83533440,.00067845,97.3141,251.9365,245.6128,114.4434,0,U,58919,999,13197,.10364775E-2,.231301E-2,0
NEXSAT-1,2024-024E,2026-06-11T07:11:49.435872,15.33484234,.00094395,97.3056,236.4245,130.9795,229.2266,0,U,58921,999,13099,.18724011E-3,.5989E-4,0
2024-024F,2024-024F,2026-06-11T06:47:49.919424,15.22020702,.00135716,97.3037,227.0267,67.6619,292.6054,0,U,58922,999,13036,.34407694E-3,.7814E-4,0
2024-024J,2024-024J,2026-06-11T06:14:09.020832,15.75270735,.00030341,97.3122,253.2581,142.9777,217.1698,0,U,58925,999,16877,.5862932E-3,.88556E-3,0
PACE,2024-025A,2026-06-11T01:13:27.944832,14.65539125,.00006293,98.0956,93.4586,301.6523,58.4619,0,U,58928,999,12503,.72975419E-4,.348E-5,0
COSMOS 2575,2024-026A,2026-06-10T17:06:05.729184,15.75424533,.00019255,96.6192,46.0294,90.8107,269.3381,0,U,58929,999,13461,.56772714E-4,.8452E-4,0
STARLINK-31317,2024-027A,2026-06-11T06:00:02.000160,15.34385010,.00011217,53.1587,234.8328,72.6922,6.4765,0,U,58931,999,581,.25080416E-3,.8103E-4,0
STARLINK-31378,2024-027B,2026-06-10T22:37:28.440192,15.31705792,.00011791,53.1596,235.9193,80.3595,279.7539,0,U,58932,999,13161,-.4281007E-5,-.498E-5,0
STARLINK-31350,2024-027C,2026-06-10T21:53:12.553440,15.30196053,.00010268,53.1614,236.4320,84.2360,275.8757,0,U,58933,999,13160,-.19145216E-4,-.926E-5,0
STARLINK-31337,2024-027D,2026-06-10T21:48:38.763072,15.30215265,.00008401,53.1586,236.4170,120.0785,240.0299,0,U,58934,999,13160,.19385518E-3,.5389E-4,0
STARLINK-31362,2024-027E,2026-06-10T11:58:38.895456,15.30211428,.00013985,53.1598,238.8343,71.2046,288.9107,0,U,58935,999,13153,.75047363E-4,.1865E-4,0
STARLINK-31383,2024-027F,2026-06-10T11:57:08.212608,15.30196745,.00013336,53.1604,238.8272,117.2045,242.9092,0,U,58936,999,13153,.2829647E-4,.479E-5,0
